ONEWEB-0707             
1 61612U 24188U   25172.12423456  .00000618  00000+0  17328-2 0  9990
2 61612  87.8819 108.2392 0002598  72.2906 287.8504 13.10372858 34070
ONEWEB-0708             
1 61613U 24188V   25172.06611795 -.00000181  00000+0 -55366-3 0  9991
2 61613  87.8875 108.2606 0002450  61.3885 298.7489 13.10369819 34271
